[{"OBJECT_NAME":"STARLINK-32410","OBJECT_ID":"2024-204P","EPOCH":"2026-03-09T09:33:07.264800","MEAN_MOTION":15.30199223,"ECCENTRICITY":0.00011316,"INCLINATION":53.16,"RA_OF_ASC_NODE":128.3831,"ARG_OF_PERICENTER":68.5581,"MEAN_ANOMALY":291.554,"EPHEMERIS_TYPE":0,"CLASSIFICATION_TYPE":"U","NORAD_CAT_ID":61887,"ELEMENT_SET_NO":999,"REV_AT_EPOCH":7505,"BSTAR":-7.7259511e-5,"MEAN_MOTION_DOT":-2.646e-5,"MEAN_MOTION_DDOT":0},{"OBJECT_NAME":"TRANSPORTER-1 OBJECT M","OBJECT_ID":"2021-006M","EPOCH":"2026-03-09T22:05:37.843296","MEAN_MOTION":15.3227845,"ECCENTRICITY":0.00102759,"INCLINATION":97.2377,"RA_OF_ASC_NODE":116.7915,"ARG_OF_PERICENTER":187.5492,"MEAN_ANOMALY":172.5597,"EPHEMERIS_TYPE":0,"CLASSIFICATION_TYPE":"U","NORAD_CAT_ID":47424,"ELEMENT_SET_NO":999,"REV_AT_EPOCH":28439,"BSTAR":0.00023985652,"MEAN_MOTION_DOT":7.411e-5,"MEAN_MOTION_DDOT":0}]
